{
    "links": {
        "self": "http://www.neowsapp.com/rest/v1/neo/3893866?api_key=iIulBulltgU6a56xZRHN4H3l9WmuAYTsLGpBGhQ2"
    },
    "id": "3893866",
    "neo_reference_id": "3893866",
    "name": "(2019 XT)",
    "designation": "2019 XT",
    "nasa_jpl_url": "http://ssd.jpl.nasa.gov/sbdb.cgi?sstr=3893866",
    "absolute_magnitude_h": 24.4,
    "estimated_diameter": {
        "kilometers": {
            "estimated_diameter_min": 0.0350392641,
            "estimated_diameter_max": 0.0783501764
        },
        "meters": {
            "estimated_diameter_min": 35.0392641108,
            "estimated_diameter_max": 78.3501764334
        },
        "miles": {
            "estimated_diameter_min": 0.0217723826,
            "estimated_diameter_max": 0.0486845275
        },
        "feet": {
            "estimated_diameter_min": 114.9582192654,
            "estimated_diameter_max": 257.0543928497
        }
    },
    "is_potentially_hazardous_asteroid": false,
    "close_approach_data": [
        {
            "close_approach_date": "2019-07-10",
            "close_approach_date_full": "2019-Jul-10 05:52",
            "epoch_date_close_approach": 1562737920000,
            "relative_velocity": {
                "kilometers_per_second": "12.0327392007",
                "kilometers_per_hour": "43317.8611225715",
                "miles_per_hour": "26916.0343180778"
            },
            "miss_distance": {
                "astronomical": "0.4347861566",
                "lunar": "169.1318149174",
                "kilometers": "65043082.932846442",
                "miles": "40415897.6243952196"
            },
            "orbiting_body": "Earth"
        },
        {
            "close_approach_date": "2019-11-22",
            "close_approach_date_full": "2019-Nov-22 23:12",
            "epoch_date_close_approach": 1574464320000,
            "relative_velocity": {
                "kilometers_per_second": "14.0876380143",
                "kilometers_per_hour": "50715.4968516571",
                "miles_per_hour": "31512.6374742977"
            },
            "miss_distance": {
                "astronomical": "0.1067538483",
                "lunar": "41.5272469887",
                "kilometers": "15970148.319983121",
                "miles": "9923390.0123282298"
            },
            "orbiting_body": "Earth"
        }
    ],
    "orbital_data": {
        "orbit_id": "1",
        "orbit_determination_date": "2019-12-03 19:13:45",
        "first_observation_date": "2019-12-02",
        "last_observation_date": "2019-12-04",
        "data_arc_in_days": 2,
        "observations_used": 15,
        "orbit_uncertainty": "9",
        "minimum_orbit_intersection": ".104467",
        "jupiter_tisserand_invariant": "4.536",
        "epoch_osculation": "2458820.5",
        "eccentricity": ".292741658485234",
        "semi_major_axis": "1.436211328877216",
        "inclination": "24.67229346870434",
        "ascending_node_longitude": "65.74856782536602",
        "orbital_period": "628.6746505622679",
        "perihelion_distance": "1.015772442526418",
        "perihelion_argument": "310.8812342438764",
        "aphelion_distance": "1.856650215228014",
        "perihelion_time": "2458768.204702344088",
        "mean_anomaly": "29.94602556233281",
        "mean_motion": ".5726332367274977",
        "equinox": "J2000",
        "orbit_class": {
            "orbit_class_type": "APO",
            "orbit_class_description": "Near-Earth asteroid orbits which cross the Earth’s orbit similar to that of 1862 Apollo",
            "orbit_class_range": "a (semi-major axis) > 1.0 AU; q (perihelion) < 1.017 AU"
        }
    },
    "is_sentry_object": false
}